STARLINK-30929          
1 58386U 23178N   26068.09487404  .00001554  00000+0  64590-4 0  9991
2 58386  53.1622   4.1069 0000984  85.6529 274.4584 15.30190660129778
HYPERFIELD-1A           
1 60562U 24149CY  26068.76488211  .00008569  00000+0  30052-3 0  9998
2 60562  97.3842 149.5066 0003865 313.7844  46.3076 15.29681349 86836
